TROLL                   
1 62658U 25009BB  26068.22522958  .00013174  00000+0  48220-3 0  9994
2 62658  97.3932 150.7169 0001816  59.1850 300.9568 15.28164315118170
STARLINK-35305          
1 66561U 25268E   26067.99192392 -.00033055  00000+0 -11986-2 0  9996
2 66561  42.9995 350.9526 0001415 290.3728  69.6972 15.27536182 17856
